     2.11           N: GPS NAV DATA                         RINEX VERSION / TYPE
teqc  2019Feb25                         20191006 00:06:09UTCPGM / RUN BY / DATE
Linux 2.6.32-573.12.1.x86_64|x86_64|gcc -static|Linux 64|=+ COMMENT
    1.0245D-08  7.4506D-09 -5.9605D-08 -5.9605D-08          ION ALPHA
    8.8064D+04  0.0000D+00 -1.9661D+05 -6.5536D+04          ION BETA
   -3.725290298462D-09-1.598721155460D-14   147456     2074 DELTA-UTC: A0,A1,T,W
                                                            END OF HEADER
31 19 10  5  4  0  0.0 5.820300430059D-06-2.614797267597D-12 0.000000000000D+00
    1.790000000000D+02 4.262500000000D+01 4.583762360673D-09 2.783339637017D+00
    2.268701791763D-06 9.413985069841D-03 8.793547749519D-06 5.153709419250D+03
    5.328000000000D+05-1.676380634308D-07-2.072952501581D+00 3.352761268616D-08
    9.590658484622D-01 2.102187500000D+02 3.490176849589D-02-7.856041521377D-09
   -1.507205638307D-10 1.000000000000D+00 2.073000000000D+03 0.000000000000D+00
    2.800000000000D+00 0.000000000000D+00-1.350417733192D-08 1.790000000000D+02
    5.256180000000D+05 4.000000000000D+00
21 19 10  5  4  0  0.0-1.076245680451D-04 6.366462912410D-12 0.000000000000D+00
    7.600000000000D+01-6.750000000000D+01 4.485901141503D-09 1.882907008280D+00
   -3.850087523460D-06 2.449238963891D-02 6.331130862236D-06 5.153651567459D+03
    5.328000000000D+05 4.563480615616D-07 9.789622526330D-01-2.123415470123D-07
    9.500446763513D-01 2.464687500000D+02-1.408264804247D+00-7.841755212009D-09
   -4.000166622996D-11 1.000000000000D+00 2.073000000000D+03 0.000000000000D+00
    2.000000000000D+00 0.000000000000D+00-1.024454832077D-08 7.600000000000D+01
    5.256180000000D+05 4.000000000000D+00
14 19 10  5  4  0  0.0-5.781790241599D-05 2.046363078989D-12 0.000000000000D+00
    1.110000000000D+02 2.468750000000D+00 4.781270587683D-09-6.460586439643D-01
    2.868473529816D-07 1.075258548371D-02 7.791444659233D-06 5.153747943878D+03
    5.328000000000D+05-1.173466444016D-07-3.068762374202D+00 1.434236764908D-07
    9.608637250424D-01 2.336562500000D+02-1.931714029632D+00-8.227842722675D-09
   -1.821504444400D-11 1.000000000000D+00 2.073000000000D+03 0.000000000000D+00
    2.800000000000D+00 0.000000000000D+00-9.778887033463D-09 1.110000000000D+02
    5.256180000000D+05 4.000000000000D+00
 2 19 10  5  4  0  0.0-3.192415460944D-04-7.958078640513D-12 0.000000000000D+00
    1.100000000000D+02-7.684375000000D+01 4.376253717105D-09-2.274585084342D+00
   -3.853812813759D-06 1.919238502160D-02 6.511807441711D-06 5.153549983978D+03
    5.328000000000D+05 3.259629011154D-07 9.753337140155D-01-4.284083843231D-08
    9.562227578761D-01 2.500312500000D+02-1.711471728890D+00-7.726750421598D-09
    4.357324357192D-11 1.000000000000D+00 2.073000000000D+03 0.000000000000D+00
    2.000000000000D+00 0.000000000000D+00-2.048909664154D-08 1.100000000000D+02
    5.256180000000D+05 4.000000000000D+00
24 19 10  5  4  0  0.0-2.996064722538D-06-4.547473508865D-13 0.000000000000D+00
    7.800000000000D+01 2.565625000000D+01 5.100569602054D-09-2.272216669710D+00
    1.121312379837D-06 8.784892852418D-03 8.616596460342D-06 5.153698453903D+03
    5.328000000000D+05 3.539025783539D-08-2.155726951983D+00-1.285225152969D-07
    9.378178572038D-01 2.009687500000D+02 6.075399173105D-01-8.153553913962D-09
   -1.042900583853D-10 1.000000000000D+00 2.073000000000D+03 0.000000000000D+00
    2.000000000000D+00 0.000000000000D+00 2.793967723846D-09 7.800000000000D+01
    5.256180000000D+05 4.000000000000D+00
31 19 10  5  3 59 44.0 5.821231752634D-06-2.614797267597D-12 0.000000000000D+00
    3.000000000000D+00 4.262500000000D+01 4.583762360673D-09 2.781005927191D+00
    2.268701791763D-06 9.413985302672D-03 8.793547749519D-06 5.153709423065D+03
    5.327840000000D+05-1.676380634308D-07-2.072952388936D+00 3.352761268616D-08
    9.590658352959D-01 2.102187500000D+02 3.490177142173D-02-7.856041521377D-09
   -1.507205638307D-10 1.000000000000D+00 2.073000000000D+03 0.000000000000D+00
    2.000000000000D+00 0.000000000000D+00-1.350417733192D-08 3.000000000000D+00
    5.262060000000D+05 4.000000000000D+00
 5 19 10  5  4  0  0.0-2.022366970778D-06-3.410605131648D-13 0.000000000000D+00
    6.300000000000D+01-3.156250000000D+01 4.686266630387D-09 3.077695774154D-01
   -1.490116119385D-06 5.898365168832D-03 8.231028914452D-06 5.153772523880D+03
    5.328000000000D+05-1.676380634308D-08 2.060251382448D+00 1.173466444016D-07
    9.505113325894D-01 2.152187500000D+02 7.965250363849D-01-8.100694569301D-09
    2.764400862678D-10 1.000000000000D+00 2.073000000000D+03 0.000000000000D+00
    2.000000000000D+00 0.000000000000D+00-1.117587089539D-08 6.300000000000D+01
    5.273760000000D+05 4.000000000000D+00
16 19 10  5  4  0  0.0-8.031073957682D-05-3.524291969370D-12 0.000000000000D+00
    8.400000000000D+01 6.078125000000D+01 4.210532528438D-09 5.913345695612D-01
    3.401190042496D-06 1.082368171774D-02 5.669891834259D-06 5.153647907257D+03
    5.328000000000D+05-9.313225746155D-09-9.657994263142D-01 1.639127731323D-07
    9.813841515491D-01 2.792187500000D+02 5.792025606715D-01-8.101408884770D-09
   -1.389343586023D-10 1.000000000000D+00 2.073000000000D+03 0.000000000000D+00
    2.000000000000D+00 0.000000000000D+00-1.071020960808D-08 8.400000000000D+01
    5.278020000000D+05 4.000000000000D+00
23 19 10  5  3 59 44.0-1.632180064917D-04 2.160049916711D-12 0.000000000000D+00
    3.000000000000D+00 4.906250000000D+00 5.020209111860D-09-1.771122425695D+00
    1.452863216400D-07 1.322767580859D-02 6.990507245064D-06 5.153743156433D+03
    5.327840000000D+05 2.235174179077D-07 3.114185608982D+00-7.264316082001D-08
    9.437416704001D-01 2.285937500000D+02-2.226664784452D+00-8.044263647298D-09
    1.289339420448D-10 1.000000000000D+00 2.073000000000D+03 0.000000000000D+00
    2.000000000000D+00 0.000000000000D+00-2.002343535423D-08 3.000000000000D+00
    5.280480000000D+05 4.000000000000D+00
27 19 10  5  4  0  0.0-7.730629295111D-05-1.227817847393D-11 0.000000000000D+00
    5.500000000000D+01-2.031250000000D+01 4.269106396846D-09-3.661205622081D-01
   -1.126900315285D-06 7.228074478917D-03 4.272907972336D-06 5.153654495239D+03
    5.328000000000D+05 5.960464477539D-08-8.237416675754D-03 4.470348358154D-08
    9.788438016190D-01 3.052500000000D+02 5.118704365211D-01-8.207127574092D-09
   -1.589351917173D-10 1.000000000000D+00 2.073000000000D+03 0.000000000000D+00
    2.000000000000D+00 0.000000000000D+00 1.396983861923D-09 5.500000000000D+01
    5.314380000000D+05 4.000000000000D+00
20 19 10  5  4  0  0.0 5.270987749100D-04 1.136868377216D-13 0.000000000000D+00
    7.900000000000D+01-2.490625000000D+01 5.083068873079D-09-2.946041729960D+00
   -1.173466444016D-06 4.925919580273D-03 8.106231689453D-06 5.153623140335D+03
    5.328000000000D+05-4.284083843231D-08 1.962769192552D+00 3.166496753693D-08
    9.315440218391D-01 2.047187500000D+02 2.447002335789D+00-8.228199880409D-09
    2.900120801672D-10 1.000000000000D+00 2.073000000000D+03 0.000000000000D+00
    2.000000000000D+00 0.000000000000D+00-8.847564458847D-09 7.900000000000D+01
    5.319960000000D+05 4.000000000000D+00
26 19 10  5  3 59 44.0 5.430867895484D-05 8.640199666843D-12 0.000000000000D+00
    5.000000000000D+00 6.656250000000D+01 4.911990318399D-09 1.532022413100D+00
    3.671273589134D-06 3.977674408816D-03 5.835667252541D-06 5.153681221008D+03
    5.327840000000D+05 6.705522537231D-08-1.081655476687D+00 8.381903171539D-08
    9.496269752038D-01 2.600312500000D+02 1.194559333505D-01-8.343918986289D-09
   -1.053615315878D-10 1.000000000000D+00 2.073000000000D+03 0.000000000000D+00
    2.000000000000D+00 0.000000000000D+00 7.450580596924D-09 5.000000000000D+00
    5.325780000000D+05 4.000000000000D+00
27 19 10  5  6  0  0.0-7.739476859570D-05-1.227817847393D-11 0.000000000000D+00
    6.100000000000D+01-1.093750000000D+01 4.285535652619D-09 6.840015485072D-01
   -4.358589649200D-07 7.229233509861D-03 4.287809133530D-06 5.153656831741D+03
    5.400000000000D+05 4.656612873077D-08-8.296473215696D-03 6.146728992462D-08
    9.788426473767D-01 3.028125000000D+02 5.119389479006D-01-8.202127365813D-09
   -1.625067690592D-10 1.000000000000D+00 2.073000000000D+03 0.000000000000D+00
    2.000000000000D+00 0.000000000000D+00 1.396983861923D-09 6.100000000000D+01
    5.328180000000D+05 4.000000000000D+00
29 19 10  5  6  0  0.0 7.973611354828D-05-1.023181539495D-11 0.000000000000D+00
    6.500000000000D+01-1.015625000000D+01 4.062669226480D-09 8.819025052021D-01
   -7.040798664093D-07 1.165391178802D-03 4.382804036140D-06 5.153685054779D+03
    5.400000000000D+05-7.450580596924D-09 5.997662763871D-02 2.793967723846D-08
    9.860375345012D-01 3.070000000000D+02 2.031446335288D+00-7.984261147953D-09
   -9.678974596714D-11 1.000000000000D+00 2.073000000000D+03 0.000000000000D+00
    2.000000000000D+00 0.000000000000D+00-9.778887033463D-09 6.500000000000D+01
    5.328180000000D+05 4.000000000000D+00
16 19 10  5  6  0  0.0-8.033635094762D-05-3.524291969370D-12 0.000000000000D+00
    8.500000000000D+01 5.637500000000D+01 4.186960117981D-09 1.641383462690D+00
    3.088265657425D-06 1.082434295677D-02 6.482005119324D-06 5.153651128769D+03
    5.400000000000D+05-2.067536115646D-07-9.658581127358D-01 1.918524503708D-07
    9.813833688879D-01 2.679062500000D+02 5.793474553927D-01-8.038906281285D-09
   -4.857345185067D-11 1.000000000000D+00 2.073000000000D+03 0.000000000000D+00
    2.000000000000D+00 0.000000000000D+00-1.071020960808D-08 8.500000000000D+01
    5.328180000000D+05 4.000000000000D+00
